     2.100          NAVIGATION                              RINEX VERSION / TYPE
fic2rin                                 10/19/2011 00:10:33 PGM / RUN BY / DATE
                                                            END OF HEADER
11 11 10 18  8  0  0.0 -.195778906345D-03 -.341060513165D-11  .000000000000D+00
     .620000000000D+02 -.615625000000D+01  .625204613710D-08  .236154021375D+01
    -.471249222755D-06  .124735920690D-01  .643730163574D-05  .515366707993D+04
     .201600000000D+06  .242143869400D-07  .252106254307D+01 -.245869159698D-06
     .888063278943D+00  .215250000000D+03  .985591603423D+00 -.872286334227D-08
     .464305054455D-10  .100000000000D+01  .165800000000D+04  .000000000000D+00
     .240000000000D+01  .000000000000D+00 -.116415321827D-07  .620000000000D+02
     .194406000000D+06  .400000000000D+01
12 11 10 18  8  0  0.0  .292053446174D-04  .238742359215D-11  .000000000000D+00
     .118000000000D+03 -.763437500000D+02  .406052628008D-08  .199487143763D+01
    -.394694507122D-05  .357826496474D-02  .871717929840D-05  .515364934540D+04
     .201600000000D+06  .558793544769D-08  .707463979343D+00  .109896063805D-06
     .977024131948D+00  .218250000000D+03 -.652767242490D-01 -.781103964687D-08
    -.450018745087D-10  .100000000000D+01  .165800000000D+04  .000000000000D+00
     .340000000000D+01  .000000000000D+00 -.121071934700D-07  .118000000000D+03
     .194406000000D+06  .400000000000D+01
14 11 10 18  8  0  0.0  .177321024239D-03  .170530256582D-11  .000000000000D+00
     .104000000000D+03  .871562500000D+02  .417088801994D-08 -.161106984417D+01
     .461749732494D-05  .631624576636D-02  .558607280254D-05  .515372858047D+04
     .201600000000D+06  .121071934700D-06 -.134563077568D+01  .391155481339D-07
     .980900819508D+00  .280562500000D+03 -.207855802038D+01 -.794390232399D-08
     .195365280605D-09  .100000000000D+01  .165800000000D+04  .000000000000D+00
     .240000000000D+01  .000000000000D+00 -.884756445885D-08  .104000000000D+03
     .194406000000D+06  .400000000000D+01
15 11 10 18  8  0  0.0 -.102200545371D-03  .125055521494D-11  .000000000000D+00
     .660000000000D+02  .773437500000D+02  .491413326480D-08 -.191007851137D+01
     .382587313652D-05  .378457282204D-02  .565312802792D-05  .515369958305D+04
     .201600000000D+06 -.298023223877D-07 -.142618939088D+01 -.484287738800D-07
     .947930091173D+00  .267531250000D+03 -.775496223902D-01 -.829177395710D-08
     .165364030933D-09  .100000000000D+01  .165800000000D+04  .000000000000D+00
     .240000000000D+01  .000000000000D+00 -.102445483208D-07  .660000000000D+02
     .194406000000D+06  .400000000000D+01
16 11 10 18  8  0  0.0 -.203983392566D-03 -.204636307899D-11  .000000000000D+00
     .400000000000D+02 -.815000000000D+02  .400588114674D-08 -.379961718771D+00
    -.428222119808D-05  .614560674876D-02  .829063355923D-05  .515354412651D+04
     .201600000000D+06  .128522515297D-06  .725437857536D+00 -.353902578354D-07
     .977951528384D+00  .230625000000D+03 -.697230618682D-01 -.787747098543D-08
    -.342871424828D-10  .100000000000D+01  .165800000000D+04  .000000000000D+00
     .240000000000D+01  .000000000000D+00 -.977888703346D-08  .400000000000D+02
     .194406000000D+06  .400000000000D+01
17 11 10 18  8  0  0.0  .170103739947D-03 -.181898940355D-11  .000000000000D+00
     .380000000000D+02 -.115000000000D+02  .455376111100D-08 -.125611547526D+01
    -.653788447380D-06  .665743486024D-02  .814534723759D-05  .515358650780D+04
     .201600000000D+06  .225380063057D-06  .176750411434D+01 -.242143869400D-07
     .961482935841D+00  .225781250000D+03 -.240477886858D+01 -.795533137148D-08
     .166792661870D-09  .100000000000D+01  .165800000000D+04  .000000000000D+00
     .240000000000D+01  .000000000000D+00 -.107102096081D-07  .380000000000D+02
     .194406000000D+06  .400000000000D+01
18 11 10 18  8  0  0.0  .162697862834D-03  .181898940355D-11  .000000000000D+00
     .470000000000D+02  .462812500000D+02  .513842832188D-08  .190807740914D+00
     .240653753281D-05  .127542612609D-01  .929832458496D-05  .515364119339D+04
     .201600000000D+06 -.894069671631D-07 -.244041030696D+01  .197440385818D-06
     .931853348552D+00  .188687500000D+03 -.220966236579D+01 -.842213653008D-08
    -.215366113720D-09  .100000000000D+01  .165800000000D+04  .000000000000D+00
     .240000000000D+01  .000000000000D+00 -.107102096081D-07  .470000000000D+02
     .194406000000D+06  .400000000000D+01
19 11 10 18  8  0  0.0 -.195470638573D-03 -.397903932026D-11  .000000000000D+00
     .690000000000D+02 -.190312500000D+02  .457554773279D-08 -.201076929023D+01
    -.957399606705D-06  .764745101333D-02  .802613794804D-05  .515370660210D+04
     .201600000000D+06 -.186264514923D-08  .182116088906D+01 -.838190317154D-07
     .958953736272D+00  .225187500000D+03  .120393014304D+00 -.794783105907D-08
     .330370904131D-09  .100000000000D+01  .165800000000D+04  .000000000000D+00
     .340000000000D+01  .000000000000D+00 -.144354999065D-07  .690000000000D+02
     .194406000000D+06  .400000000000D+01
20 11 10 18  8  0  0.0  .545666553080D-04  .568434188608D-12  .000000000000D+00
     .120000000000D+03  .350000000000D+02  .506806824824D-08  .633374911613D+00
     .165402889252D-05  .464545225259D-02  .908225774765D-05  .515357752991D+04
     .201600000000D+06 -.912696123123D-07 -.249426278355D+01 -.335276126862D-07
     .932169091624D+00  .188000000000D+03  .126240699876D+01 -.833427572747D-08
    -.240724312848D-09  .100000000000D+01  .165800000000D+04  .000000000000D+00
     .240000000000D+01  .000000000000D+00 -.745058059692D-08  .120000000000D+03
     .194406000000D+06  .400000000000D+01
21 11 10 18  8  0  0.0 -.178635120392D-03 -.250111042988D-11  .000000000000D+00
     .630000000000D+02 -.734375000000D+01  .539058168222D-08  .128410035788D+01
    -.286847352982D-06  .181716261432D-01  .746734440327D-05  .515369652176D+04
     .201600000000D+06 -.283122062683D-06  .279029306073D+01  .102445483208D-06
     .931829870180D+00  .225812500000D+03 -.232392802671D+01 -.856928551657D-08
    -.323227749447D-09  .100000000000D+01  .165800000000D+04  .000000000000D+00
     .240000000000D+01  .000000000000D+00 -.116415321827D-07  .630000000000D+02
     .194406000000D+06  .400000000000D+01
22 11 10 18  8  0  0.0  .143842771649D-03 -.454747350886D-12  .000000000000D+00
     .320000000000D+02  .486875000000D+02  .513557106001D-08 -.664911427247D+00
     .260397791862D-05  .587386148982D-02  .932253897190D-05  .515370565224D+04
     .201600000000D+06 -.242143869400D-07 -.243656987052D+01  .707805156708D-07
     .929557323497D+00  .185125000000D+03 -.197159831570D+01 -.834356182855D-08
    -.175721605224D-09  .100000000000D+01  .165800000000D+04  .000000000000D+00
     .240000000000D+01  .000000000000D+00 -.167638063431D-07  .320000000000D+02
     .194406000000D+06  .400000000000D+01
23 11 10 18  8  0  0.0  .266969669610D-03 -.318323145621D-11  .000000000000D+00
     .780000000000D+02  .717187500000D+02  .456876173584D-08 -.249114159078D+01
     .368617475033D-05  .757654290646D-02  .624917447567D-05  .515372130585D+04
     .201600000000D+06 -.111758708954D-06 -.139372120124D+01 -.124797224998D-06
     .962523468509D+00  .265437500000D+03 -.304070369907D+01 -.809176562595D-08
     .160006664920D-09  .100000000000D+01  .165800000000D+04  .000000000000D+00
     .240000000000D+01  .000000000000D+00 -.200234353542D-07  .780000000000D+02
     .194406000000D+06  .400000000000D+01
25 11 10 18  8  0  0.0  .239121727645D-04  .181898940355D-11  .000000000000D+00
     .610000000000D+02 -.805937500000D+02  .433768068181D-08  .505784368155D+00
    -.413320958614D-05  .101885257754D-02  .862218439579D-05  .515358735275D+04
     .201600000000D+06  .409781932831D-07  .675948354179D+00  .204890966415D-07
     .965859375234D+00  .212843750000D+03  .951071739933D+00 -.801104797802D-08
    -.371444043564D-10  .100000000000D+01  .165800000000D+04  .000000000000D+00
     .240000000000D+01  .000000000000D+00  .558793544769D-08  .610000000000D+02
     .194406000000D+06  .400000000000D+01
26 11 10 18  8  0  0.0 -.194586813450D-03 -.131876731757D-10  .000000000000D+00
     .640000000000D+02  .748437500000D+02  .404481133977D-08 -.265923190359D+01
     .364892184734D-05  .204004709376D-01  .488758087158D-05  .515365530014D+04
     .201600000000D+06  .307336449623D-06 -.132569545935D+01 -.856816768646D-07
     .985544370187D+00  .296562500000D+03  .116325175285D+01 -.762281752095D-08
     .240009997380D-09  .100000000000D+01  .165800000000D+04  .000000000000D+00
     .240000000000D+01  .000000000000D+00 -.605359673500D-08  .640000000000D+02
     .194406000000D+06  .400000000000D+01
27 11 10 18  8  0  0.0  .316296704113D-03  .375166564481D-11  .000000000000D+00
     .680000000000D+02 -.225312500000D+02  .426982071231D-08 -.170263571978D+01
    -.640749931335D-06  .217080465518D-01  .432319939137D-05  .515360944939D+04
     .201600000000D+06 -.298023223877D-06 -.401077386163D+00  .435858964920D-06
     .981767084986D+00  .309593750000D+03 -.119264427865D+01 -.806426448041D-08
    -.460733477113D-10  .100000000000D+01  .165800000000D+04  .000000000000D+00
     .340000000000D+01  .630000000000D+02 -.419095158577D-08  .680000000000D+02
     .194406000000D+06  .400000000000D+01
28 11 10 18  8  0  0.0  .765365548432D-04  .318323145621D-11  .000000000000D+00
     .420000000000D+02 -.553437500000D+02  .420696095110D-08 -.614395973590D+00
    -.288523733616D-05  .173041003291D-01  .810250639915D-05  .515370891571D+04
     .201600000000D+06 -.189989805222D-06  .732459007046D+00  .160187482834D-06
     .976263275570D+00  .233437500000D+03 -.187760824878D+01 -.819927010394D-08
    -.178578867098D-10  .100000000000D+01  .165800000000D+04  .000000000000D+00
     .240000000000D+01  .000000000000D+00 -.102445483208D-07  .420000000000D+02
     .194406000000D+06  .400000000000D+01
